KUIPER-00044            
1 64505U 25134F   25289.10123380  .00006755  00000+0  91328-3 0  9997
2 64505  51.8987 165.9632 0013404 151.4892 208.6806 14.79934613 18471
KUIPER-00046            
1 64506U 25134G   25289.10109756 -.00000134  00000+0  11903-4 0  9997
2 64506  51.8985 162.3911 0012345 161.2233 198.9187 14.79549073 18523
KUIPER-00047            
1 64507U 25134H   25289.55700549  .00008967  00000+0  41453-3 0  9997
2 64507  51.8658 137.7227 0010746 177.6849 182.4182 15.20841913 18904
KUIPER-00048            
1 64508U 25134J   25289.66668981 -.01336399  00000+0 -72222-1 0  9995
2 64508  51.8796 135.9463 0003569 201.4748  61.2768 15.17563772  4739
KUIPER-00049            
1 64509U 25134K   25289.32291758  .00026747  00000+0  35202-2 0  9991
2 64509  51.8985 147.4429 0004643 142.1103 218.0187 14.79967563 18757
KUIPER-00050            
1 64510U 25134L   25288.99876287  .00007139  00000+0  65633-3 0  9997
2 64510  51.8893 148.9775 0005698 183.2503 176.8430 14.95711263 18707
KUIPER-00051            
1 64511U 25134M   25289.66668981 -.00007990  00000+0 -94055-3 0  9990
2 64511  51.8996 143.5106 0003789 161.9294 203.7884 14.83280645  5037
KUIPER-00052            
1 64512U 25134N   25289.53038638  .00075611  00000+0  86992-3 0  9991
2 64512  51.8695 123.6832 0007401 191.7830 168.2994 15.61294144 19095
